{
  "type": "FeatureCollection",
  "features": [
    {
      "type": "Feature",
      "properties": {
        "norad_id": 38208,
        "name": "COSMOS 2251 DEB",
        "group": "cosmos-2251-debris",
        "lat": -0.8349968995423397,
        "lon": -120.19758661670843,
        "alt_km": 618.4421401468799,
        "timestamp": "2025-12-22T11:33:20.838090+00:00",
        "meta_object_name": "COSMOS 2251 DEB",
        "meta_object_id": "1993-036BSY",
        "meta_epoch": "2025-12-22T04:24:53.388864",
        "meta_mean_motion": 14.84207001,
        "meta_eccentricity": 8.56e-05,
        "meta_inclination": 74.0048,
        "meta_ra_of_asc_node": 60.1537,
        "meta_arg_of_pericenter": 130.0058,
        "meta_mean_anomaly": 261.5985,
        "meta_ephemeris_type": 0,
        "meta_classification_type": "U",
        "meta_norad_cat_id": 38208,
        "meta_element_set_no": 999,
        "meta_rev_at_epoch": 71299,
        "meta_bstar": 0.002371,
        "meta_mean_motion_dot": 0.00019866,
        "meta_mean_motion_ddot": 0,
        "tle_line1": "1 38208U 93036BSY 25356.18395126  .00019866  00000+0  23710-2 0  9992",
        "tle_line2": "2 38208  74.0048  60.1537 0000856 130.0058 261.5985 14.84207001712995"
      },
      "geometry": {
        "type": "Point",
        "coordinates": [
          -120.19758661670843,
          -0.8349968995423397
        ]
      }
    },
    {
      "type": "Feature",
      "properties": {
        "norad_id": 38212,
        "name": "COSMOS 2251 DEB",
        "group": "cosmos-2251-debris",
        "lat": -74.01572318901846,
        "lon": -35.913903939154075,
        "alt_km": 697.6301833740108,
        "timestamp": "2025-12-22T11:33:20.838100+00:00",
        "meta_object_name": "COSMOS 2251 DEB",
        "meta_object_id": "1993-036BTC",
        "meta_epoch": "2025-12-19T04:21:29.490912",
        "meta_mean_motion": 14.77722254,
        "meta_eccentricity": 0.0092064,
        "meta_inclination": 74.0528,
        "meta_ra_of_asc_node": 63.9673,
        "meta_arg_of_pericenter": 129.0689,
        "meta_mean_anomaly": 231.8724,
        "meta_ephemeris_type": 0,
        "meta_classification_type": "U",
        "meta_norad_cat_id": 38212,
        "meta_element_set_no": 999,
        "meta_rev_at_epoch": 81405,
        "meta_bstar": 0.00027193732,
        "meta_mean_motion_dot": 2.056e-05,
        "meta_mean_motion_ddot": 0,
        "tle_line1": "1 38212U 93036BTC 25353.18159133  .00002056  00000+0  27194-3 0  9994",
        "tle_line2": "2 38212  74.0528  63.9673 0092064 129.0689 231.8724 14.77722254814050"
      },
      "geometry": {
        "type": "Point",
        "coordinates": [
          -35.913903939154075,
          -74.01572318901846
        ]
      }
    },
    {
      "type": "Feature",
      "properties": {
        "norad_id": 38220,
        "name": "COSMOS 2251 DEB",
        "group": "cosmos-2251-debris",
        "lat": -56.34400324015665,
        "lon": -105.81834467316867,
        "alt_km": 596.9729562520233,
        "timestamp": "2025-12-22T11:33:20.838110+00:00",
        "meta_object_name": "COSMOS 2251 DEB",
        "meta_object_id": "1993-036BTL",
        "meta_epoch": "2025-12-21T10:22:06.292992",
        "meta_mean_motion": 14.93371544,
        "meta_eccentricity": 0.00056549,
        "meta_inclination": 74.0147,
        "meta_ra_of_asc_node": 50.7921,
        "meta_arg_of_pericenter": 21.3839,
        "meta_mean_anomaly": 338.758,
        "meta_ephemeris_type": 0,
        "meta_classification_type": "U",
        "meta_norad_cat_id": 38220,
        "meta_element_set_no": 999,
        "meta_rev_at_epoch": 71500,
        "meta_bstar": 0.0022419042,
        "meta_mean_motion_dot": 0.00023579,
        "meta_mean_motion_ddot": 0,
        "tle_line1": "1 38220U 93036BTL 25355.43201728  .00023579  00000+0  22419-2 0  9998",
        "tle_line2": "2 38220  74.0147  50.7921 0005654  21.3839 338.7580 14.93371544715008"
      },
      "geometry": {
        "type": "Point",
        "coordinates": [
          -105.81834467316867,
          -56.34400324015665
        ]
      }
    },
    {
      "type": "Feature",
      "properties": {
        "norad_id": 38479,
        "name": "COSMOS 2251 DEB",
        "group": "cosmos-2251-debris",
        "lat": -62.152469295765776,
        "lon": 19.177706819880264,
        "alt_km": 716.7476015429847,
        "timestamp": "2025-12-22T11:33:20.838120+00:00",
        "meta_object_name": "COSMOS 2251 DEB",
        "meta_object_id": "1993-036BTP",
        "meta_epoch": "2025-12-20T18:25:43.397760",
        "meta_mean_motion": 14.3837654,
        "meta_eccentricity": 0.0084129,
        "meta_inclination": 74.006,
        "meta_ra_of_asc_node": 169.459,
        "meta_arg_of_pericenter": 276.8827,
        "meta_mean_anomaly": 100.487,
        "meta_ephemeris_type": 0,
        "meta_classification_type": "U",
        "meta_norad_cat_id": 38479,
        "meta_element_set_no": 999,
        "meta_rev_at_epoch": 64803,
        "meta_bstar": 0.0014525,
        "meta_mean_motion_dot": 4.588e-05,
        "meta_mean_motion_ddot": 0,
        "tle_line1": "1 38479U 93036BTP 25354.76786340  .00004588  00000+0  14525-2 0  9995",
        "tle_line2": "2 38479  74.0060 169.4590 0084129 276.8827 100.4870 14.38376540648030"
      },
      "geometry": {
        "type": "Point",
        "coordinates": [
          19.177706819880264,
          -62.152469295765776
        ]
      }
    },
    {
      "type": "Feature",
      "properties": {
        "norad_id": 38481,
        "name": "COSMOS 2251 DEB",
        "group": "cosmos-2251-debris",
        "lat": 63.80960719822733,
        "lon": 26.59294704197193,
        "alt_km": 1034.4014004272094,
        "timestamp": "2025-12-22T11:33:20.838130+00:00",
        "meta_object_name": "COSMOS 2251 DEB",
        "meta_object_id": "1993-036BTR",
        "meta_epoch": "2025-12-17T17:37:11.726400",
        "meta_mean_motion": 13.94852214,
        "meta_eccentricity": 0.02348213,
        "meta_inclination": 73.9324,
        "meta_ra_of_asc_node": 358.9239,
        "meta_arg_of_pericenter": 298.2644,
        "meta_mean_anomaly": 59.4964,
        "meta_ephemeris_type": 0,
        "meta_classification_type": "U",
        "meta_norad_cat_id": 38481,
        "meta_element_set_no": 999,
        "meta_rev_at_epoch": 59130,
        "meta_bstar": 0.0012605173,
        "meta_mean_motion_dot": 2.103e-05,
        "meta_mean_motion_ddot": 0,
        "tle_line1": "1 38481U 93036BTR 25351.73416350  .00002103  00000+0  12605-2 0  9991",
        "tle_line2": "2 38481  73.9324 358.9239 0234821 298.2644  59.4964 13.94852214591302"
      },
      "geometry": {
        "type": "Point",
        "coordinates": [
          26.59294704197193,
          63.80960719822733
        ]
      }
    },
    {
      "type": "Feature",
      "properties": {
        "norad_id": 38483,
        "name": "COSMOS 2251 DEB",
        "group": "cosmos-2251-debris",
        "lat": -71.59130698279992,
        "lon": -63.59676129007619,
        "alt_km": 881.8560643485462,
        "timestamp": "2025-12-22T11:33:20.838140+00:00",
        "meta_object_name": "COSMOS 2251 DEB",
        "meta_object_id": "1993-036BTT",
        "meta_epoch": "2025-12-12T08:16:48.530496",
        "meta_mean_motion": 14.28787654,
        "meta_eccentricity": 0.01107994,
        "meta_inclination": 74.262,
        "meta_ra_of_asc_node": 12.4521,
        "meta_arg_of_pericenter": 118.0167,
        "meta_mean_anomaly": 243.2246,
        "meta_ephemeris_type": 0,
        "meta_classification_type": "U",
        "meta_norad_cat_id": 38483,
        "meta_element_set_no": 999,
        "meta_rev_at_epoch": 63472,
        "meta_bstar": 0.0012977102,
        "meta_mean_motion_dot": 3.471e-05,
        "meta_mean_motion_ddot": 0,
        "tle_line1": "1 38483U 93036BTT 25346.34500614  .00003471  00000+0  12977-2 0  9992",
        "tle_line2": "2 38483  74.2620  12.4521 0110799 118.0167 243.2246 14.28787654634722"
      },
      "geometry": {
        "type": "Point",
        "coordinates": [
          -63.59676129007619,
          -71.59130698279992
        ]
      }
    },
    {
      "type": "Feature",
      "properties": {
        "norad_id": 38486,
        "name": "COSMOS 2251 DEB",
        "group": "cosmos-2251-debris",
        "lat": 21.41447696983631,
        "lon": -167.7520156209443,
        "alt_km": 636.8081701169785,
        "timestamp": "2025-12-22T11:33:20.838150+00:00",
        "meta_object_name": "COSMOS 2251 DEB",
        "meta_object_id": "1993-036BTW",
        "meta_epoch": "2025-12-19T21:49:44.280192",
        "meta_mean_motion": 14.73429029,
        "meta_eccentricity": 0.0030516,
        "meta_inclination": 73.9403,
        "meta_ra_of_asc_node": 190.8021,
        "meta_arg_of_pericenter": 334.2314,
        "meta_mean_anomaly": 90.8371,
        "meta_ephemeris_type": 0,
        "meta_classification_type": "U",
        "meta_norad_cat_id": 38486,
        "meta_element_set_no": 999,
        "meta_rev_at_epoch": 75540,
        "meta_bstar": 0.0013432,
        "meta_mean_motion_dot": 8.756e-05,
        "meta_mean_motion_ddot": 0,
        "tle_line1": "1 38486U 93036BTW 25353.90954028  .00008756  00000+0  13432-2 0  9995",
        "tle_line2": "2 38486  73.9403 190.8021 0030516 334.2314  90.8371 14.73429029755403"
      },
      "geometry": {
        "type": "Point",
        "coordinates": [
          -167.7520156209443,
          21.41447696983631
        ]
      }
    }
  ]
}